LEMUR-1                 
1 40044U 14033AL  26200.69765586  .00000669  00000+0  82651-4 0  9991
2 40044  97.7915 349.7893 0047378 332.9845  26.8905 14.85343875650298
LEMUR-2-GREENBERG       
1 42837U 17042N   26200.48787179  .00008759  00000+0  28370-3 0  9990
2 42837  97.3839  20.9886 0007431 241.5042 118.5452 15.32233564493333
LEMUR-2-ANDIS           
1 42838U 17042P   26200.44011883  .00011782  00000+0  33770-3 0  9999
2 42838  97.3691  21.2418 0007413 240.5981 119.4524 15.36030642493400
LEMUR-2-MONSON          
1 42839U 17042Q   26200.76389591  .00007784  00000+0  28045-3 0  9995
2 42839  97.4102  21.1846 0005603 226.0215 134.0563 15.28825454493142
LEMUR-2-FURIAUS         
1 42840U 17042R   26200.43830536  .00009277  00000+0  31005-3 0  9990
2 42840  97.3788  18.8215 0005723 311.1861  48.8887 15.31212862493140
LEMUR-2-PETERG          
1 42841U 17042S   26200.44348177  .00010813  00000+0  31943-3 0  9996
2 42841  97.4004  25.5577 0003631 202.2189 157.8897 15.35124199493385
LEMUR-2-DEMBITZ         
1 42842U 17042T   26200.78487065  .00009257  00000+0  30962-3 0  9994
2 42842  97.3839  22.2135 0005174 252.9643 107.1031 15.31193718493338
LEMUR-2-ZACHARY         
1 42845U 17042W   26200.82078154  .00032150  00000+0  51576-3 0  9999
2 42845  97.3580  33.2166 0002901 223.8802 136.2221 15.53002308494264
LEMUR-2-AMANDA-SVANTE   
1 48269U 21034B   26200.75028903  .00017942  00000+0  51134-3 0  9992
2 48269  97.5740 279.9385 0004806 133.4502 226.7142 15.36130619286052
LEMUR-2-SPECIAL-K       
1 48273U 21034F   26200.77933194  .00189173  00000+0  11782-2 0  9996
2 48273  97.5623 290.2833 0006263 210.6848 149.4051 15.76367989286800
LEMUR-2-EMBRIONOVIS     
1 56970U 23084AQ  26200.34320846  .00007667  00000+0  20526-3 0  9997
2 56970  97.6331 345.8022 0008671 191.0814 169.0241 15.38295857172622
LEMUR-2-DEVERILL-M-T    
1 57391U 23100F   26200.58089179  .00014094  00000+0  34188-3 0  9992
2 57391  99.4445 248.7356 0004771 278.7246  81.3454 15.41222703166232
LEMUR-2-BASS            
1 58259U 23174D   26200.75227615  .00009657  00000+0  21302-3 0  9998
2 58259  97.3837 285.9427 0007365  64.5844 295.6166 15.44086347150381
LEMUR-2-JK0903EM1407    
1 58336U 23174CJ  26200.82216882  .00016037  00000+0  25655-3 0  9991
2 58336  97.3916 292.2502 0003114  14.6736 345.4607 15.53221514150790
LEMUR-2-MJR092620       
1 58340U 23174CN  26200.79167546  .00011328  00000+0  23424-3 0  9994
2 58340  97.3967 291.4475 0004856  13.2773 346.8603 15.45964734150689
LEMUR-2-NIMBUS2000      
1 58899U 24022A   26200.48882309  .00012050  00000+0  29171-3 0  9991
2 58899  97.4081  50.9197 0008300  13.8440 346.3033 15.41225793137240
LEMUR-2-VALHALLA        
1 58900U 24022B   26200.88519329  .00008840  00000+0  21926-3 0  9999
2 58900  97.4081  51.2869 0008726   7.8665 352.2717 15.40573549137303
LEMUR-2-CAEL            
1 58903U 24022E   26200.34746674  .00009367  00000+0  22211-3 0  9991
2 58903  97.4060  51.7363 0006665 354.0113   6.1053 15.41938041137291
LEMUR-2-JOHNNYTRUONG    
1 59146U 24043BA  26200.38017769  .00024963  00000+0  27854-3 0  9991
2 59146  97.5404 354.1407 0003826  81.8636 278.3056 15.62784650133069
LEMUR-2-TOMATOKECHUP    
1 60471U 24149D   26200.80318013  .00005915  00000+0  16762-3 0  9996
2 60471  97.3786 282.9462 0003431 113.5159 246.6446 15.36638110107171
LEMUR-2-STELLA          
1 60533U 24149BT  26200.77123698  .00005888  00000+0  34273-3 0  9990
2 60533  97.6728 283.3824 0001286 123.0610 237.0744 15.12424995105429
LEMUR-2-MARHISYAM       
1 60536U 24149BW  26200.76394657  .00004919  00000+0  29176-3 0  9997
2 60536  97.6872 283.8566 0002256  62.3623 297.7836 15.11826829105401
LEMUR-2-AHMED-ASRAR     
1 60576U 24149DN  26200.76583082  .00005706  00000+0  32372-3 0  9990
2 60576  97.6999 286.0796 0001624 184.9138 175.2077 15.13363648105498
LEMUR-2-LLOYD           
1 60577U 24149DP  26200.78800228  .00005237  00000+0  32809-3 0  9991
2 60577  97.6730 281.9461 0004272  59.7041 300.4610 15.09795102105314
LEMUR-2-SQUIRRELCOMM    
1 60578U 24149DQ  26200.65090433  .00002982  00000+0  20080-3 0  9999
2 60578  97.6699 281.4656 0004005 305.2280  54.8572 15.07469828105293
LEMUR-2-SIERRINI        
1 60579U 24149DR  26200.79363213  .00005840  00000+0  34803-3 0  9998
2 60579  97.6829 283.5430 0006100  79.2614 280.9302 15.11564081105384
LEMUR-2-WILSON          
1 62694U 25009CP  26200.75231096  .00001093  00000+0  10444-3 0  9994
2 62694  97.7016 278.6460 0001658 297.4630  62.6423 14.95285188 82221
LEMUR-2-STAR-FOX        
1 62696U 25009CR  26200.72098013  .00003793  00000+0  28736-3 0  9995
2 62696  97.6897 282.0957 0001696  24.4402 335.6903 15.02874020 82444
LEMUR-2-ARIANNA         
1 62699U 25009CU  26200.18679380  .00003837  00000+0  29064-3 0  9994
2 62699  97.6840 281.3147 0002074  35.4388 324.6975 15.02872906 82363
LEMUR-2-ALISIA          
1 62706U 25009DB  26200.75737054  .00003729  00000+0  28005-3 0  9993
2 62706  97.6961 282.7148 0004828 116.7593 243.4126 15.03212012105057
